[{"OBJECT_NAME":"STARLINK-34084","OBJECT_ID":"2025-099U","EPOCH":"2026-03-09T07:31:00.876576","MEAN_MOTION":15.27590814,"ECCENTRICITY":5.596e-5,"INCLINATION":42.9963,"RA_OF_ASC_NODE":177.9147,"ARG_OF_PERICENTER":254.2506,"MEAN_ANOMALY":105.8284,"EPHEMERIS_TYPE":0,"CLASSIFICATION_TYPE":"U","NORAD_CAT_ID":63970,"ELEMENT_SET_NO":999,"REV_AT_EPOCH":4728,"BSTAR":0.0015426738,"MEAN_MOTION_DOT":0.00042448,"MEAN_MOTION_DDOT":0},{"OBJECT_NAME":"COSMOS 2251 DEB","OBJECT_ID":"1993-036BXP","EPOCH":"2026-03-04T07:23:49.847712","MEAN_MOTION":15.24789556,"ECCENTRICITY":0.00190834,"INCLINATION":73.9759,"RA_OF_ASC_NODE":64.3004,"ARG_OF_PERICENTER":239.4537,"MEAN_ANOMALY":120.4779,"EPHEMERIS_TYPE":0,"CLASSIFICATION_TYPE":"U","NORAD_CAT_ID":47059,"ELEMENT_SET_NO":999,"REV_AT_EPOCH":9543,"BSTAR":0.0048704033,"MEAN_MOTION_DOT":0.00123422,"MEAN_MOTION_DDOT":0}]
